KUZGTU 1 (RS47S)        
1 57217U 23091AV  26179.93733485  .00011958  00000+0  41185-3 0  9999
2 57217  97.5065 244.5381 0011708  61.3195 298.9221 15.30124560166176
SONATE-2                
1 59112U 24043Q   26179.94755946  .00038634  00000+0  48500-3 0  9998
2 59112  97.5534 331.0724 0007247 157.4146 202.7430 15.59597787129723
MESAT1                  
1 60209U 24125G   26179.56051020  .00054405  00000+0  56370-3 0  9996
2 60209  97.2273  37.3111 0010685 164.5747 195.5841 15.64461641111340
OOV-CUBE (TUBSAT-30)    
1 60240U 24128F   26179.36696796  .00001714  00000+0  14069-3 0  9991
2 60240  61.9924 186.5879 0043237 136.2488 224.2043 15.02811881107796
COLIBRI-S (RS67S)       
1 61746U 24199M   26179.95635927  .00021356  00000+0  40666-3 0  9991
2 61746  97.2978  53.9207 0006900 222.5738 137.4978 15.48202574139233
HORS 3 (RS81S)          
1 61753U 24199U   26179.92746335  .00035151  00000+0  50931-3 0  9996
2 61753  97.2966  56.0076 0004785 214.1976 145.8971 15.55781570139384
HORS 4 (RS82S)          
1 61754U 24199V   26179.91577305  .00047020  00000+0  56383-3 0  9990
2 61754  97.2908  57.2751 0004764 199.2541 160.8537 15.60781007139478
SIT-2086                
1 61764U 24199AF  26179.91997442  .00033008  00000+0  51250-3 0  9998
2 61764  97.2922  56.4360 0006098 197.8968 162.2072 15.53887646136252
HYPERVIEW 1G (RS66S)    
1 61772U 24199AP  26179.73538863  .00155935  00000+0  85928-3 0  9998
2 61772  97.2849  60.0642 0006534 183.0473 177.0755 15.79221272136499
ALTAIR (RS65S)          
1 61779U 24199AW  26179.96003381  .00010422  00000+0  28733-3 0  9994
2 61779  97.3018  49.2343 0010802 261.7650  98.2370 15.37244777138922
ASRTU-1 (AO-123)        
1 61781U 24199AY  26179.95840874  .00007277  00000+0  21052-3 0  9993
2 61781  97.2989  48.5237 0011912 265.4438  94.5445 15.35839121135732
SAMSAT-IONOSPHERE (RS7*)
1 61784U 24199BB  26179.94069486  .00047114  00000+0  61190-3 0  9998
2 61784  97.2931  56.1119 0006931 218.7729 141.3031 15.58656332139399
RTU MIREA 1 (RS51S)     
1 61785U 24199BC  26179.93816945  .00063246  00000+0  71096-3 0  9998
2 61785  97.2917  57.0037 0006956 211.0673 149.0175 15.62380355136300
TEVEL2-4                
1 63213U 25052D   26179.98290178  .00018058  00000+0  53309-3 0  9992
2 63213  97.3896  76.3963 0004769  81.4943 278.6841 15.35017882 71923
TEVEL2-5                
1 63214U 25052E   26179.67876933  .00017696  00000+0  52563-3 0  9996
2 63214  97.3896  76.0362 0004746  83.6484 276.5299 15.34828420 71878
TEVEL2-6                
1 63215U 25052F   26179.69136113  .00017169  00000+0  51064-3 0  9998
2 63215  97.3902  76.0332 0004599  84.2867 275.8901 15.34794418 71873
TEVEL2-1                
1 63217U 25052H   26179.98532116  .00017180  00000+0  51974-3 0  9998
2 63217  97.3868  75.9379 0004999  91.1261 269.0554 15.34253524 71905
TEVEL2-3                
1 63218U 25052J   26179.97952522  .00017118  00000+0  51693-3 0  9994
2 63218  97.3874  75.9556 0004853  92.1975 267.9824 15.34313237 71907
TEVEL2-2                
1 63219U 25052K   26179.65946029  .00016937  00000+0  51245-3 0  9996
2 63219  97.3871  75.6148 0005015  92.1173 268.0645 15.34253315 71857
OTP-2                   
1 63235U 25052AB  26179.97962936  .00008326  00000+0  34488-3 0  9997
2 63235  97.3863  72.2339 0008116 114.6659 245.5424 15.24137072 71669
TEVEL2-9                
1 63237U 25052AD  26179.65180651  .00015749  00000+0  50741-3 0  9997
2 63237  97.3933  74.9572 0008303 100.5589 259.6589 15.32242983 71789
TEVEL2-7                
1 63238U 25052AE  26179.95622217  .00014794  00000+0  48125-3 0  9992
2 63238  97.3936  75.1722 0008392  99.7965 260.4224 15.31946752 71823
TEVEL2-8                
1 63239U 25052AF  26179.96458924  .00015124  00000+0  49212-3 0  9992
2 63239  97.3936  75.1570 0008449 100.4916 259.7278 15.31932731 71826
INNOSAT 16 (RS92S7)     
1 64878U 25155C   26179.94013598  .00005615  00000+0  22366-3 0  9993
2 64878  97.4567 147.0313 0011818 137.1375 223.0786 15.25577571 82461
GEOSCAN 6 (RS92S6)      
1 64879U 25155D   26179.95193610  .00009136  00000+0  31325-3 0  9996
2 64879  97.4557 148.5508 0009551 127.1615 233.0499 15.30365430 82568
GEOSCAN 1 (RS92S1)      
1 64880U 25155E   26179.94973020  .00010345  00000+0  34759-3 0  9996
2 64880  97.4553 148.7069 0009505 127.2320 232.9790 15.30986822 82570
239ALFEROV (RS61S)      
1 64881U 25155F   26179.96757527  .00013784  00000+0  43067-3 0  9993
2 64881  97.4554 149.3264 0009205 125.5491 234.6611 15.33251121 82619
GEOSCAN 2 (RS92S2)      
1 64890U 25155Q   26179.94134846  .00010131  00000+0  33777-3 0  9994
2 64890  97.4552 148.8557 0009066 116.1746 244.0429 15.31247795 82588
GEOSCAN 5 (RS92S5)      
1 64891U 25155R   26179.95416892  .00013351  00000+0  41324-3 0  9994
2 64891  97.4545 149.4549 0008088 129.0506 231.1458 15.33566122 82623
GEOSCAN 4 (RS92S4)      
1 64892U 25155S   26179.93716299  .00014521  00000+0  44695-3 0  9991
2 64892  97.4549 149.4896 0008126 128.8711 231.3257 15.33725402 82628
