OBJECT_NAME,OBJECT_ID,EPOCH,MEAN_MOTION,ECCENTRICITY,INCLINATION,RA_OF_ASC_NODE,ARG_OF_PERICENTER,MEAN_ANOMALY,EPHEMERIS_TYPE,CLASSIFICATION_TYPE,NORAD_CAT_ID,ELEMENT_SET_NO,REV_AT_EPOCH,BSTAR,MEAN_MOTION_DOT,MEAN_MOTION_DDOT
KUZGTU 1 (RS47S),2023-091AV,2026-06-28T22:29:45.731040,15.30124560,.0011708,97.5065,244.5381,61.3195,298.9221,0,U,57217,999,16617,.4118458E-3,.11958E-3,0
SONATE-2,2024-043Q,2026-06-28T22:44:29.137344,15.59597787,.00072477,97.5534,331.0724,157.4146,202.7430,0,U,59112,999,12972,.48500466E-3,.38634E-3,0
MESAT1,2024-125G,2026-06-28T13:27:08.081280,15.64461641,.00106859,97.2273,37.3111,164.5747,195.5841,0,U,60209,999,11134,.56370307E-3,.54405E-3,0
OOV-CUBE (TUBSAT-30),2024-128F,2026-06-28T08:48:26.031744,15.02811881,.00432378,61.9924,186.5879,136.2488,224.2043,0,U,60240,999,10779,.14068964E-3,.1714E-4,0
COLIBRI-S (RS67S),2024-199M,2026-06-28T22:57:09.440928,15.48202574,.00069,97.2978,53.9207,222.5738,137.4978,0,U,61746,999,13923,.4066563E-3,.21356E-3,0
HORS 3 (RS81S),2024-199U,2026-06-28T22:15:32.833440,15.55781570,.00047852,97.2966,56.0076,214.1976,145.8971,0,U,61753,999,13938,.50930969E-3,.35151E-3,0
HORS 4 (RS82S),2024-199V,2026-06-28T21:58:42.791520,15.60781007,.00047644,97.2908,57.2751,199.2541,160.8537,0,U,61754,999,13947,.56383114E-3,.4702E-3,0
SIT-2086,2024-199AF,2026-06-28T22:04:45.789888,15.53887646,.0006098,97.2922,56.4360,197.8968,162.2072,0,U,61764,999,13625,.5124954E-3,.33008E-3,0
HYPERVIEW 1G (RS66S),2024-199AP,2026-06-28T17:38:57.577632,15.79221272,.0006534,97.2849,60.0642,183.0473,177.0755,0,U,61772,999,13649,.85927645E-3,.155935E-2,0
ALTAIR (RS65S),2024-199AW,2026-06-28T23:02:26.921184,15.37244777,.00108022,97.3018,49.2343,261.7650,98.2370,0,U,61779,999,13892,.28733282E-3,.10422E-3,0
ASRTU-1 (AO-123),2024-199AY,2026-06-28T23:00:06.515136,15.35839121,.00119121,97.2989,48.5237,265.4438,94.5445,0,U,61781,999,13573,.21052339E-3,.7277E-4,0
SAMSAT-IONOSPHERE (RS75S),2024-199BB,2026-06-28T22:34:36.035904,15.58656332,.00069318,97.2931,56.1119,218.7729,141.3031,0,U,61784,999,13939,.61189642E-3,.47114E-3,0
RTU MIREA 1 (RS51S),2024-199BC,2026-06-28T22:30:57.840480,15.62380355,.00069562,97.2917,57.0037,211.0673,149.0175,0,U,61785,999,13630,.710962E-3,.63246E-3,0
TEVEL2-4,2025-052D,2026-06-28T23:35:22.713792,15.35017882,.00047692,97.3896,76.3963,81.4943,278.6841,0,U,63213,999,7192,.53308986E-3,.18058E-3,0
TEVEL2-5,2025-052E,2026-06-28T16:17:25.670112,15.34828420,.00047465,97.3896,76.0362,83.6484,276.5299,0,U,63214,999,7187,.52563493E-3,.17696E-3,0
TEVEL2-6,2025-052F,2026-06-28T16:35:33.601632,15.34794418,.00045995,97.3902,76.0332,84.2867,275.8901,0,U,63215,999,7187,.51063641E-3,.17169E-3,0
TEVEL2-1,2025-052H,2026-06-28T23:38:51.748224,15.34253524,.00049994,97.3868,75.9379,91.1261,269.0554,0,U,63217,999,7190,.51973547E-3,.1718E-3,0
TEVEL2-3,2025-052J,2026-06-28T23:30:30.979008,15.34313237,.00048533,97.3874,75.9556,92.1975,267.9824,0,U,63218,999,7190,.51693033E-3,.17118E-3,0
TEVEL2-2,2025-052K,2026-06-28T15:49:37.369056,15.34253315,.00050154,97.3871,75.6148,92.1173,268.0645,0,U,63219,999,7185,.51245467E-3,.16937E-3,0
OTP-2,2025-052AB,2026-06-28T23:30:39.976704,15.24137072,.00081167,97.3863,72.2339,114.6659,245.5424,0,U,63235,999,7166,.34488317E-3,.8326E-4,0
TEVEL2-9,2025-052AD,2026-06-28T15:38:36.082464,15.32242983,.00083031,97.3933,74.9572,100.5589,259.6589,0,U,63237,999,7178,.50741128E-3,.15749E-3,0
TEVEL2-7,2025-052AE,2026-06-28T22:56:57.595488,15.31946752,.00083921,97.3936,75.1722,99.7965,260.4224,0,U,63238,999,7182,.48125137E-3,.14794E-3,0
TEVEL2-8,2025-052AF,2026-06-28T23:09:00.510336,15.31932731,.00084499,97.3936,75.1570,100.4916,259.7278,0,U,63239,999,7182,.49211676E-3,.15124E-3,0
INNOSAT 16 (RS92S7),2025-155C,2026-06-28T22:33:47.748672,15.25577571,.00118184,97.4567,147.0313,137.1375,223.0786,0,U,64878,999,8246,.22365682E-3,.5615E-4,0
GEOSCAN 6 (RS92S6),2025-155D,2026-06-28T22:50:47.279040,15.30365430,.00095519,97.4557,148.5508,127.1615,233.0499,0,U,64879,999,8256,.31324931E-3,.9136E-4,0
GEOSCAN 1 (RS92S1),2025-155E,2026-06-28T22:47:36.689280,15.30986822,.00095057,97.4553,148.7069,127.2320,232.9790,0,U,64880,999,8257,.34758624E-3,.10345E-3,0
239ALFEROV (RS61S),2025-155F,2026-06-28T23:13:18.503328,15.33251121,.00092051,97.4554,149.3264,125.5491,234.6611,0,U,64881,999,8261,.43066972E-3,.13784E-3,0
GEOSCAN 2 (RS92S2),2025-155Q,2026-06-28T22:35:32.506944,15.31247795,.00090662,97.4552,148.8557,116.1746,244.0429,0,U,64890,999,8258,.33777199E-3,.10131E-3,0
GEOSCAN 5 (RS92S5),2025-155R,2026-06-28T22:54:00.194688,15.33566122,.00080888,97.4545,149.4549,129.0506,231.1458,0,U,64891,999,8262,.41324255E-3,.13351E-3,0
GEOSCAN 4 (RS92S4),2025-155S,2026-06-28T22:29:30.882336,15.33725402,.00081261,97.4549,149.4896,128.8711,231.3257,0,U,64892,999,8262,.44695163E-3,.14521E-3,0
